start=new Date('2022-07-13T00:00:00.000Z').valueOf();
sats=[{"NORAD_CAT_ID":"51111","OBJECT_ID":"2022-005H","RCS_SIZE":"LARGE","BSTAR":"0.00011838000000","TIME_SYSTEM":"UTC","PERIOD":"95.437","SITE":"AFETR","ARG_OF_PERICENTER":"64.5289","COUNTRY_CODE":"US","MEAN_ANOMALY":"295.5923","REF_FRAME":"TEME","MEAN_MOTION_DDOT":"0.0000000000000","RA_OF_ASC_NODE":"168.1755","MEAN_MOTION_DOT":"0.00001597","ECCENTRICITY":"0.00021280","CLASSIFICATION_TYPE":"U","SEMIMAJOR_AXIS":"6917.855","TLE_LINE2":"2 51111  53.2171 168.1755 0002128  64.5289 295.5923 15.08848365 27136","LAUNCH_DATE":"2022-01-19","EPOCH":"2022-07-12T08:23:37.998240","TLE_LINE1":"1 51111U 22005H   22193.34974535  .00001597  00000-0  11838-3 0  9991","EPHEMERIS_TYPE":"0","OBJECT_TYPE":"PAYLOAD","PERIAPSIS":"538.248","MEAN_MOTION":"15.08848365","ELEMENT_SET_NO":"999","MEAN_ELEMENT_THEORY":"SGP4","OBJECT_NAME":"STARLINK-3173","FILE":"3512184","APOAPSIS":"541.192","DECAY_DATE":null,"REV_AT_EPOCH":"2713","GP_ID":"207971266","INCLINATION":"53.2171","CENTER_NAME":"EARTH"},{"MEAN_MOTION_DOT":"0.00002492","ECCENTRICITY":"0.00024990","RA_OF_ASC_NODE":"165.1058","LAUNCH_DATE":"2022-01-19","CLASSIFICATION_TYPE":"U","SEMIMAJOR_AXIS":"6917.866","TLE_LINE2":"2 51112  53.2183 165.1058 0002499  53.0521 307.0700 15.08844548 28352","COUNTRY_CODE":"US","MEAN_ANOMALY":"307.0700","PERIOD":"95.437","SITE":"AFETR","ARG_OF_PERICENTER":"53.0521","MEAN_MOTION_DDOT":"0.0000000000000","REF_FRAME":"TEME","RCS_SIZE":"LARGE","TIME_SYSTEM":"UTC","BSTAR":"0.00017463000000","NORAD_CAT_ID":"51112","OBJECT_ID":"2022-005J","INCLINATION":"53.2183","CENTER_NAME":"EARTH","DECAY_DATE":null,"REV_AT_EPOCH":"2835","APOAPSIS":"541.460","GP_ID":"208004452","MEAN_ELEMENT_THEORY":"SGP4","FILE":"3512552","OBJECT_NAME":"STARLINK-3374","PERIAPSIS":"538.003","EPOCH":"2022-07-13T00:49:17.550624","OBJECT_TYPE":"PAYLOAD","TLE_LINE1":"1 51112U 22005J   22194.03423091  .00002492  00000-0  17463-3 0  9990","EPHEMERIS_TYPE":"0","ELEMENT_SET_NO":"999","MEAN_MOTION":"15.08844548"},{"APOAPSIS":"541.245","DECAY_DATE":null,"REV_AT_EPOCH":"2837","GP_ID":"208004951","INCLINATION":"53.2159","CENTER_NAME":"EARTH","EPOCH":"2022-07-13T05:19:32.053728","TLE_LINE1":"1 51113U 22005K   22194.22189877  .00002675  00000-0  18612-3 0  9993","OBJECT_TYPE":"PAYLOAD","EPHEMERIS_TYPE":"0","PERIAPSIS":"538.227","MEAN_MOTION":"15.08843092","ELEMENT_SET_NO":"999","MEAN_ELEMENT_THEORY":"SGP4","OBJECT_NAME":"STARLINK-3372","FILE":"3512552","PERIOD":"95.437","SITE":"AFETR","ARG_OF_PERICENTER":"58.4834","COUNTRY_CODE":"US","MEAN_ANOMALY":"301.6371","MEAN_MOTION_DDOT":"0.0000000000000","REF_FRAME":"TEME","RA_OF_ASC_NODE":"164.2599","MEAN_MOTION_DOT":"0.00002675","ECCENTRICITY":"0.00021810","SEMIMAJOR_AXIS":"6917.871","CLASSIFICATION_TYPE":"U","TLE_LINE2":"2 51113  53.2159 164.2599 0002181  58.4834 301.6371 15.08843092 28379","LAUNCH_DATE":"2022-01-19","NORAD_CAT_ID":"51113","OBJECT_ID":"2022-005K","RCS_SIZE":"LARGE","BSTAR":"0.00018612000000","TIME_SYSTEM":"UTC"},{"LAUNCH_DATE":"2022-01-19","CLASSIFICATION_TYPE":"U","SEMIMAJOR_AXIS":"6917.875","TLE_LINE2":"2 51114  53.2188 165.3818 0002527  58.5516 301.5723 15.08841687 28345","MEAN_MOTION_DOT":"0.00000093","ECCENTRICITY":"0.00025270","RA_OF_ASC_NODE":"165.3818","MEAN_MOTION_DDOT":"0.0000000000000","REF_FRAME":"TEME","COUNTRY_CODE":"US","MEAN_ANOMALY":"301.5723","PERIOD":"95.437","SITE":"AFETR","ARG_OF_PERICENTER":"58.5516","TIME_SYSTEM":"UTC","BSTAR":"0.00002395800000","RCS_SIZE":"LARGE","NORAD_CAT_ID":"51114","OBJECT_ID":"2022-005L","INCLINATION":"53.2188","CENTER_NAME":"EARTH","GP_ID":"208004494","DECAY_DATE":null,"REV_AT_EPOCH":"2834","APOAPSIS":"541.488","MEAN_ELEMENT_THEORY":"SGP4","OBJECT_NAME":"STARLINK-3375","FILE":"3512539","ELEMENT_SET_NO":"999","MEAN_MOTION":"15.08841687","PERIAPSIS":"537.992","EPOCH":"2022-07-12T23:24:30.293568","TLE_LINE1":"1 51114U 22005L   22193.97535062  .00000093  00000-0  23958-4 0  9998","EPHEMERIS_TYPE":"0","OBJECT_TYPE":"PAYLOAD"},{"DECAY_DATE":null,"REV_AT_EPOCH":"2719","APOAPSIS":"541.244","GP_ID":"208000472","INCLINATION":"53.2162","CENTER_NAME":"EARTH","PERIAPSIS":"538.240","EPOCH":"2022-07-12T18:01:15.132576","EPHEMERIS_TYPE":"0","TLE_LINE1":"1 51115U 22005M   22193.75086959  .00001047  00000-0  83875-4 0  9995","OBJECT_TYPE":"PAYLOAD","ELEMENT_SET_NO":"999","MEAN_MOTION":"15.08841172","MEAN_ELEMENT_THEORY":"SGP4","FILE":"3512432","OBJECT_NAME":"STARLINK-3397","COUNTRY_CODE":"US","MEAN_ANOMALY":"301.2548","PERIOD":"95.437","SITE":"AFETR","ARG_OF_PERICENTER":"58.8657","REF_FRAME":"TEME","MEAN_MOTION_DDOT":"0.0000000000000","MEAN_MOTION_DOT":"0.00001047","ECCENTRICITY":"0.00021710","RA_OF_ASC_NODE":"166.3744","LAUNCH_DATE":"2022-01-19","SEMIMAJOR_AXIS":"6917.877","CLASSIFICATION_TYPE":"U","TLE_LINE2":"2 51115  53.2162 166.3744 0002171  58.8657 301.2548 15.08841172 27194","NORAD_CAT_ID":"51115","OBJECT_ID":"2022-005M","RCS_SIZE":"LARGE","TIME_SYSTEM":"UTC","BSTAR":"0.00008387500000"},{"RCS_SIZE":"LARGE","BSTAR":"0.00007214100000","TIME_SYSTEM":"UTC","OBJECT_ID":"2022-005N","NORAD_CAT_ID":"51116","RA_OF_ASC_NODE":"165.7134","ECCENTRICITY":"0.00024980","MEAN_MOTION_DOT":"0.00000860","TLE_LINE2":"2 51116  53.2169 165.7134 0002498  50.7029 309.4184 15.08848622 27210","SEMIMAJOR_AXIS":"6917.854","CLASSIFICATION_TYPE":"U","LAUNCH_DATE":"2022-01-19","SITE":"AFETR","ARG_OF_PERICENTER":"50.7029","PERIOD":"95.437","MEAN_ANOMALY":"309.4184","COUNTRY_CODE":"US","MEAN_MOTION_DDOT":"0.0000000000000","REF_FRAME":"TEME","OBJECT_NAME":"STARLINK-3243","FILE":"3512432","MEAN_ELEMENT_THEORY":"SGP4","TLE_LINE1":"1 51116U 22005N   22193.89805505  .00000860  00000-0  72141-4 0  9993","EPHEMERIS_TYPE":"0","OBJECT_TYPE":"PAYLOAD","EPOCH":"2022-07-12T21:33:11.956320","PERIAPSIS":"537.991","MEAN_MOTION":"15.08848622","ELEMENT_SET_NO":"999","INCLINATION":"53.2169","CENTER_NAME":"EARTH","APOAPSIS":"541.447","REV_AT_EPOCH":"2721","DECAY_DATE":null,"GP_ID":"208001224"},{"MEAN_ELEMENT_THEORY":"SGP4","OBJECT_NAME":"STARLINK-3391","FILE":"3512184","MEAN_MOTION":"15.08845728","ELEMENT_SET_NO":"999","EPOCH":"2022-07-12T08:07:43.949568","EPHEMERIS_TYPE":"0","TLE_LINE1":"1 51117U 22005P   22193.33870312 -.00000386  00000-0 -61387-5 0  9997","OBJECT_TYPE":"PAYLOAD","PERIAPSIS":"538.227","INCLINATION":"53.2164","CENTER_NAME":"EARTH","GP_ID":"207970766","APOAPSIS":"541.229","DECAY_DATE":null,"REV_AT_EPOCH":"2713","BSTAR":"-0.00000613870000","TIME_SYSTEM":"UTC","RCS_SIZE":"LARGE","NORAD_CAT_ID":"51117","OBJECT_ID":"2022-005P","SEMIMAJOR_AXIS":"6917.863","CLASSIFICATION_TYPE":"U","TLE_LINE2":"2 51117  53.2164 168.2252 0002170  61.1879 298.9331 15.08845728 27132","LAUNCH_DATE":"2022-01-19","RA_OF_ASC_NODE":"168.2252","MEAN_MOTION_DOT":"-0.00000386","ECCENTRICITY":"0.00021700","MEAN_MOTION_DDOT":"0.0000000000000","REF_FRAME":"TEME","PERIOD":"95.437","ARG_OF_PERICENTER":"61.1879","SITE":"AFETR","COUNTRY_CODE":"US","MEAN_ANOMALY":"298.9331"},{"ECCENTRICITY":"0.00022810","MEAN_MOTION_DOT":"0.00000606","RA_OF_ASC_NODE":"164.2753","LAUNCH_DATE":"2022-01-19","TLE_LINE2":"2 51118  53.2167 164.2753 0002281  49.4911 310.6280 15.08844510 28377","SEMIMAJOR_AXIS":"6917.867","CLASSIFICATION_TYPE":"U","MEAN_ANOMALY":"310.6280","COUNTRY_CODE":"US","SITE":"AFETR","ARG_OF_PERICENTER":"49.4911","PERIOD":"95.437","MEAN_MOTION_DDOT":"0.0000000000000","REF_FRAME":"TEME","RCS_SIZE":"LARGE","TIME_SYSTEM":"UTC","BSTAR":"0.00005617100000","OBJECT_ID":"2022-005Q","NORAD_CAT_ID":"51118","INCLINATION":"53.2167","CENTER_NAME":"EARTH","REV_AT_EPOCH":"2837","DECAY_DATE":null,"APOAPSIS":"541.310","GP_ID":"208004988","OBJECT_NAME":"STARLINK-3394","FILE":"3512539","MEAN_ELEMENT_THEORY":"SGP4","PERIAPSIS":"538.154","EPHEMERIS_TYPE":"0","TLE_LINE1":"1 51118U 22005Q   22194.21822164  .00000606  00000-0  56171-4 0  9995","OBJECT_TYPE":"PAYLOAD","EPOCH":"2022-07-13T05:14:14.349696","ELEMENT_SET_NO":"999","MEAN_MOTION":"15.08844510"},{"CENTER_NAME":"EARTH","INCLINATION":"53.2157","GP_ID":"207999973","REV_AT_EPOCH":"2718","DECAY_DATE":null,"APOAPSIS":"541.214","FILE":"3512432","OBJECT_NAME":"STARLINK-3390","MEAN_ELEMENT_THEORY":"SGP4","ELEMENT_SET_NO":"999","MEAN_MOTION":"15.08840315","PERIAPSIS":"538.275","OBJECT_TYPE":"PAYLOAD","TLE_LINE1":"1 51119U 22005R   22193.66622577  .00000501  00000-0  49573-4 0  9992","EPHEMERIS_TYPE":"0","EPOCH":"2022-07-12T15:59:21.906528","LAUNCH_DATE":"2022-01-19","TLE_LINE2":"2 51119  53.2157 166.7679 0002124  50.9286 309.1895 15.08840315 27181","CLASSIFICATION_TYPE":"U","SEMIMAJOR_AXIS":"6917.879","ECCENTRICITY":"0.00021240","MEAN_MOTION_DOT":"0.00000501","RA_OF_ASC_NODE":"166.7679","MEAN_MOTION_DDOT":"0.0000000000000","REF_FRAME":"TEME","MEAN_ANOMALY":"309.1895","COUNTRY_CODE":"US","ARG_OF_PERICENTER":"50.9286","SITE":"AFETR","PERIOD":"95.438","TIME_SYSTEM":"UTC","BSTAR":"0.00004957300000","RCS_SIZE":"LARGE","OBJECT_ID":"2022-005R","NORAD_CAT_ID":"51119"},{"MEAN_ELEMENT_THEORY":"SGP4","FILE":"3512546","OBJECT_NAME":"STARLINK-3398","MEAN_MOTION":"15.08847668","ELEMENT_SET_NO":"999","EPOCH":"2022-07-13T04:31:50.430432","TLE_LINE1":"1 51120U 22005S   22194.18877813  .00001193  00000-0  93018-4 0  9998","OBJECT_TYPE":"PAYLOAD","EPHEMERIS_TYPE":"0","PERIAPSIS":"537.954","CENTER_NAME":"EARTH","INCLINATION":"53.2176","GP_ID":"208004499","APOAPSIS":"541.490","DECAY_DATE":null,"REV_AT_EPOCH":"2837","BSTAR":"0.00009301800000","TIME_SYSTEM":"UTC","RCS_SIZE":"LARGE","NORAD_CAT_ID":"51120","OBJECT_ID":"2022-005S","SEMIMAJOR_AXIS":"6917.857","CLASSIFICATION_TYPE":"U","TLE_LINE2":"2 51120  53.2176 164.4272 0002556  53.4020 306.7207 15.08847668 28371","LAUNCH_DATE":"2022-01-19","RA_OF_ASC_NODE":"164.4272","MEAN_MOTION_DOT":"0.00001193","ECCENTRICITY":"0.00025560","REF_FRAME":"TEME","MEAN_MOTION_DDOT":"0.0000000000000","PERIOD":"95.437","ARG_OF_PERICENTER":"53.4020","SITE":"AFETR","COUNTRY_CODE":"US","MEAN_ANOMALY":"306.7207"}];
